$$SOE
2461295.500000000, A.D. 2026-Sep-12 00:00:00.0000, 4.854293436146119E+06, -4.097782573688807E+08, -1.440843232689491E+07,
2461302.500000000, A.D. 2026-Sep-19 00:00:00.0000, 1.596516727692495E+07, -4.090585316674842E+08, -1.456557574543682E+07,
2461309.500000000, A.D. 2026-Sep-26 00:00:00.0000, 2.706477785859315E+07, -4.080499405977656E+08, -1.471243207704112E+07,
2461316.500000000, A.D. 2026-Oct-03 00:00:00.0000, 3.814522685956176E+07, -4.067523152142112E+08, -1.484886569114488E+07,
2461323.500000000, A.D. 2026-Oct-10 00:00:00.0000, 4.919858432114189E+07, -4.051657218002787E+08, -1.497474867920655E+07,
2461330.500000000, A.D. 2026-Oct-17 00:00:00.0000, 6.021689655969738E+07, -4.032904643612511E+08, -1.508996106959620E+07,
2461337.500000000, A.D. 2026-Oct-24 00:00:00.0000, 7.119219424870573E+07, -4.011270868967915E+08, -1.519439104205930E+07,
2461344.500000000, A.D. 2026-Oct-31 00:00:00.0000, 8.211650075603756E+07, -3.986763755068135E+08, -1.528793515551189E+07,
2461351.500000000, A.D. 2026-Nov-07 00:00:00.0000, 9.298184106050844E+07, -3.959393602453693E+08, -1.537049861335486E+07,
2461358.500000000, A.D. 2026-Nov-14 00:00:00.0000, 1.037802514318197E+08, -3.929173158248817E+08, -1.544199551127002E+07,
2461365.500000000, A.D. 2026-Nov-21 00:00:00.0000, 1.145037880438211E+08, -3.896117604784219E+08, -1.550234884463134E+07,
2461372.500000000, A.D. 2026-Nov-28 00:00:00.0000, 1.251445335040540E+08, -3.860244559767424E+08, -1.555149042892009E+07,
2461379.500000000, A.D. 2026-Dec-05 00:00:00.0000, 1.356946049007389E+08, -3.821574094464052E+08, -1.558936111795545E+07,
2461386.500000000, A.D. 2026-Dec-12 00:00:00.0000, 1.461461635133902E+08, -3.780128738714557E+08, -1.561591108002302E+07,
2461393.500000000, A.D. 2026-Dec-19 00:00:00.0000, 1.564914242795952E+08, -3.735933472671492E+08, -1.563109995745473E+07,
2461400.500000000, A.D. 2026-Dec-26 00:00:00.0000, 1.667226648544359E+08, -3.689015713892735E+08, -1.563489696676889E+07,
2461407.500000000, A.D. 2027-Jan-02 00:00:00.0000, 1.768322345165688E+08, -3.639405301666500E+08, -1.562728097959843E+07,
2461414.500000000, A.D. 2027-Jan-09 00:00:00.0000, 1.868125630151436E+08, -3.587134478346440E+08, -1.560824059289940E+07,
2461421.500000000, A.D. 2027-Jan-16 00:00:00.0000, 1.966561693691255E+08, -3.532237867597902E+08, -1.557777419049868E+07,
2461428.500000000, A.D. 2027-Jan-23 00:00:00.0000, 2.063556706409813E+08, -3.474752449947990E+08, -1.553589000313145E+07,
2461435.500000000, A.D. 2027-Jan-30 00:00:00.0000, 2.159037908492339E+08, -3.414717536130207E+08, -1.548260618789928E+07,
2461442.500000000, A.D. 2027-Feb-06 00:00:00.0000, 2.252933704221056E+08, -3.352174734866728E+08, -1.541795093815958E+07,
2461449.500000000, A.D. 2027-Feb-13 00:00:00.0000, 2.345173757088905E+08, -3.287167902962295E+08, -1.534196248181020E+07,
2461456.500000000, A.D. 2027-Feb-20 00:00:00.0000, 2.435689061609226E+08, -3.219743085693827E+08, -1.525468881579378E+07,
2461463.500000000, A.D. 2027-Feb-27 00:00:00.0000, 2.524412005540671E+08, -3.149948479693054E+08, -1.515618756764579E+07,
2461470.500000000, A.D. 2027-Mar-06 00:00:00.0000, 2.611276452495973E+08, -3.077834399171327E+08, -1.504652610403883E+07,
2461477.500000000, A.D. 2027-Mar-13 00:00:00.0000, 2.696217828738675E+08, -3.003453225102030E+08, -1.492578157231586E+07,
2461484.500000000, A.D. 2027-Mar-20 00:00:00.0000, 2.779173202683488E+08, -2.926859345835196E+08, -1.479404083989595E+07,
2461491.500000000, A.D. 2027-Mar-27 00:00:00.0000, 2.860081358936350E+08, -2.848109094772258E+08, -1.465140039522246E+07,
2461498.500000000, A.D. 2027-Apr-03 00:00:00.0000, 2.938882868727739E+08, -2.767260685731094E+08, -1.449796623305249E+07,
2461505.500000000, A.D. 2027-Apr-10 00:00:00.0000, 3.015520157180192E+08, -2.684374145939652E+08, -1.433385372809404E+07,
2461512.500000000, A.D. 2027-Apr-17 00:00:00.0000, 3.089937567453944E+08, -2.599511246979946E+08, -1.415918750046571E+07,
2461519.500000000, A.D. 2027-Apr-24 00:00:00.0000, 3.162081422376932E+08, -2.512735434476064E+08, -1.397410128566393E+07,
2461526.500000000, A.D. 2027-May-01 00:00:00.0000, 3.231900086380350E+08, -2.424111756401089E+08, -1.377873783466338E+07,
2461533.500000000, A.D. 2027-May-08 00:00:00.0000, 3.299344030683990E+08, -2.333706782672388E+08, -1.357324881162648E+07,
2461540.500000000, A.D. 2027-May-15 00:00:00.0000, 3.364365886680003E+08, -2.241588506689576E+08, -1.335779447453281E+07,
2461547.500000000, A.D. 2027-May-22 00:00:00.0000, 3.426920471802585E+08, -2.147826254947614E+08, -1.313254320778380E+07,
2461554.500000000, A.D. 2027-May-29 00:00:00.0000, 3.486964821367231E+08, -2.052490619623347E+08, -1.289767133528872E+07,
2461561.500000000, A.D. 2027-Jun-05 00:00:00.0000, 3.544458235172313E+08, -1.955653383044013E+08, -1.265336303980230E+07,
2461568.500000000, A.D. 2027-Jun-12 00:00:00.0000, 3.599362318741955E+08, -1.857387429960511E+08, -1.239981016956356E+07,
2461575.500000000, A.D. 2027-Jun-19 00:00:00.0000, 3.651641015853562E+08, -1.757766657210450E+08, -1.213721197875421E+07,
2461582.500000000, A.D. 2027-Jun-26 00:00:00.0000, 3.701260635106599E+08, -1.656865883607398E+08, -1.186577484925688E+07,
2461589.500000000, A.D. 2027-Jul-03 00:00:00.0000, 3.748189871833492E+08, -1.554760760190329E+08, -1.158571200566137E+07,
2461596.500000000, A.D. 2027-Jul-10 00:00:00.0000, 3.792399825719579E+08, -1.451527680961818E+08, -1.129724322670609E+07,
2461603.500000000, A.D. 2027-Jul-17 00:00:00.0000, 3.833864014508933E+08, -1.347243694721128E+08, -1.100059456021496E+07,
2461610.500000000, A.D. 2027-Jul-24 00:00:00.0000, 3.872558385378895E+08, -1.241986418835454E+08, -1.069599806165281E+07,
2461617.500000000, A.D. 2027-Jul-31 00:00:00.0000, 3.908461328121549E+08, -1.135833952792950E+08, -1.038369157546717E+07,
2461624.500000000, A.D. 2027-Aug-07 00:00:00.0000, 3.941553688185142E+08, -1.028864780204680E+08, -1.006391844721860E+07,
2461631.500000000, A.D. 2027-Aug-14 00:00:00.0000, 3.971818756668316E+08, -9.211576619952971E+07, -9.736926976665791E+06,
2461638.500000000, A.D. 2027-Aug-21 00:00:00.0000, 3.999242243534194E+08, -8.127915546452942E+07, -9.402969944303252E+06,
2461645.500000000, A.D. 2027-Aug-28 00:00:00.0000, 4.023812268414246E+08, -7.038455416410254E+07, -9.062304428680111E+06,
2461652.500000000, A.D. 2027-Sep-04 00:00:00.0000, 4.045519357276194E+08, -5.943987532785634E+07, -8.715191602526423E+06,
2461659.500000000, A.D. 2027-Sep-11 00:00:00.0000, 4.064356431109529E+08, -4.845302816050338E+07, -8.361896434609238E+06,
2461666.500000000, A.D. 2027-Sep-18 00:00:00.0000, 4.080318788068746E+08, -3.743190971613036E+07, -8.002687363567710E+06,
2461673.500000000, A.D. 2027-Sep-25 00:00:00.0000, 4.093404081474066E+08, -2.638439684473822E+07, -7.637835971979050E+06,
2461680.500000000, A.D. 2027-Oct-02 00:00:00.0000, 4.103612294541610E+08, -1.531833839620740E+07, -7.267616666213694E+06,
2461687.500000000, A.D. 2027-Oct-09 00:00:00.0000, 4.110945712205478E+08, -4.241547697479493E+06, -6.892306365441165E+06,
2461694.500000000, A.D. 2027-Oct-16 00:00:00.0000, 4.115408890818447E+08, 6.838204631535839E+06, -6.512184211010665E+06,
2461701.500000000, A.D. 2027-Oct-23 00:00:00.0000, 4.117008628489683E+08, 1.791319750690404E+07, -6.127531321501233E+06,
2461708.500000000, A.D. 2027-Oct-30 00:00:00.0000, 4.115753939950649E+08, 2.897576645493548E+07, -5.738630578883565E+06,
2461715.500000000, A.D. 2027-Nov-06 00:00:00.0000, 4.111656024467613E+08, 4.001831205317529E+07, -5.345766247441441E+06,
2461722.500000000, A.D. 2027-Nov-13 00:00:00.0000, 4.104728207146858E+08, 5.103330765511805E+07, -4.949223413348462E+06,
2461729.500000000, A.D. 2027-Nov-20 00:00:00.0000, 4.094985882829572E+08, 6.201330420356033E+07, -4.549287690332107E+06,
2461736.500000000, A.D. 2027-Nov-27 00:00:00.0000, 4.082446478883237E+08, 7.295093509049127E+07, -4.146245098098341E+06,
2461743.500000000, A.D. 2027-Dec-04 00:00:00.0000, 4.067129416799407E+08, 8.383892197392811E+07, -3.740381853514519E+06,
2461750.500000000, A.D. 2027-Dec-11 00:00:00.0000, 4.049056067254945E+08, 9.467008058494970E+07, -3.331984103039499E+06,
2461757.500000000, A.D. 2027-Dec-18 00:00:00.0000, 4.028249701550122E+08, 1.054373261835431E+08, -2.921337649525858E+06,
2461764.500000000, A.D. 2027-Dec-25 00:00:00.0000, 4.004735441104062E+08, 1.161336786593290E+08, -2.508727687687546E+06,
2461771.500000000, A.D. 2028-Jan-01 00:00:00.0000, 3.978540205575973E+08, 1.267522672902574E+08, -2.094438551005043E+06,
$$EOE